[{"OBJECT_NAME":"STARLINK-32873","OBJECT_ID":"2025-022D","EPOCH":"2025-10-02T00:31:32.865024","MEAN_MOTION":15.30189746,"ECCENTRICITY":0.0001214,"INCLINATION":53.1571,"RA_OF_ASC_NODE":146.8788,"ARG_OF_PERICENTER":75.7645,"MEAN_ANOMALY":284.349,"EPHEMERIS_TYPE":0,"CLASSIFICATION_TYPE":"U","NORAD_CAT_ID":62857,"ELEMENT_SET_NO":999,"REV_AT_EPOCH":3760,"BSTAR":0.00233,"MEAN_MOTION_DOT":0.00069272,"MEAN_MOTION_DDOT":0},{"OBJECT_NAME":"STARLINK-32866","OBJECT_ID":"2025-022E","EPOCH":"2025-10-01T21:47:34.866816","MEAN_MOTION":15.30149791,"ECCENTRICITY":0.0001526,"INCLINATION":53.1588,"RA_OF_ASC_NODE":146.8724,"ARG_OF_PERICENTER":79.5025,"MEAN_ANOMALY":280.6148,"EPHEMERIS_TYPE":0,"CLASSIFICATION_TYPE":"U","NORAD_CAT_ID":62858,"ELEMENT_SET_NO":999,"REV_AT_EPOCH":3759,"BSTAR":0.0017114,"MEAN_MOTION_DOT":0.00050594,"MEAN_MOTION_DDOT":0},{"OBJECT_NAME":"STARLINK-32869","OBJECT_ID":"2025-022F","EPOCH":"2025-10-02T01:12:24.702624","MEAN_MOTION":15.3019159,"ECCENTRICITY":0.0001206,"INCLINATION":53.1588,"RA_OF_ASC_NODE":146.3269,"ARG_OF_PERICENTER":86.7947,"MEAN_ANOMALY":273.3192,"EPHEMERIS_TYPE":0,"CLASSIFICATION_TYPE":"U","NORAD_CAT_ID":62859,"ELEMENT_SET_NO":999,"REV_AT_EPOCH":3761,"BSTAR":0.0014212,"MEAN_MOTION_DOT":0.00041959,"MEAN_MOTION_DDOT":0},{"OBJECT_NAME":"STARLINK-32831","OBJECT_ID":"2025-022G","EPOCH":"2025-10-02T01:24:35.219808","MEAN_MOTION":15.30162801,"ECCENTRICITY":0.0001311,"INCLINATION":53.1578,"RA_OF_ASC_NODE":146.3953,"ARG_OF_PERICENTER":92.4752,"MEAN_ANOMALY":267.6399,"EPHEMERIS_TYPE":0,"CLASSIFICATION_TYPE":"U","NORAD_CAT_ID":62860,"ELEMENT_SET_NO":999,"REV_AT_EPOCH":3760,"BSTAR":0.0013815,"MEAN_MOTION_DOT":0.00040735,"MEAN_MOTION_DDOT":0},{"OBJECT_NAME":"STARLINK-32859","OBJECT_ID":"2025-022H","EPOCH":"2025-10-02T00:39:08.734752","MEAN_MOTION":15.3018514,"ECCENTRICITY":0.0001392,"INCLINATION":53.1576,"RA_OF_ASC_NODE":146.9071,"ARG_OF_PERICENTER":77.5871,"MEAN_ANOMALY":282.5286,"EPHEMERIS_TYPE":0,"CLASSIFICATION_TYPE":"U","NORAD_CAT_ID":62861,"ELEMENT_SET_NO":999,"REV_AT_EPOCH":3760,"BSTAR":0.0014835,"MEAN_MOTION_DOT":0.00043818,"MEAN_MOTION_DDOT":0},{"OBJECT_NAME":"STARLINK-32864","OBJECT_ID":"2025-022J","EPOCH":"2025-10-01T22:13:25.104864","MEAN_MOTION":15.30223202,"ECCENTRICITY":0.0001169,"INCLINATION":53.1578,"RA_OF_ASC_NODE":146.9757,"ARG_OF_PERICENTER":86.5359,"MEAN_ANOMALY":273.5775,"EPHEMERIS_TYPE":0,"CLASSIFICATION_TYPE":"U","NORAD_CAT_ID":62862,"ELEMENT_SET_NO":999,"REV_AT_EPOCH":3759,"BSTAR":0.0025004,"MEAN_MOTION_DOT":0.00074493,"MEAN_MOTION_DDOT":0},{"OBJECT_NAME":"STARLINK-32808","OBJECT_ID":"2025-022K","EPOCH":"2025-10-02T01:53:26.490912","MEAN_MOTION":15.30207721,"ECCENTRICITY":0.0001361,"INCLINATION":53.1568,"RA_OF_ASC_NODE":146.518,"ARG_OF_PERICENTER":103.4282,"MEAN_ANOMALY":256.687,"EPHEMERIS_TYPE":0,"CLASSIFICATION_TYPE":"U","NORAD_CAT_ID":62863,"ELEMENT_SET_NO":999,"REV_AT_EPOCH":3761,"BSTAR":0.0019785,"MEAN_MOTION_DOT":0.00058715,"MEAN_MOTION_DDOT":0},{"OBJECT_NAME":"STARLINK-32862","OBJECT_ID":"2025-022L","EPOCH":"2025-10-02T00:26:59.372736","MEAN_MOTION":15.30180333,"ECCENTRICITY":0.0001404,"INCLINATION":53.1567,"RA_OF_ASC_NODE":146.8572,"ARG_OF_PERICENTER":72.2734,"MEAN_ANOMALY":287.842,"EPHEMERIS_TYPE":0,"CLASSIFICATION_TYPE":"U","NORAD_CAT_ID":62864,"ELEMENT_SET_NO":999,"REV_AT_EPOCH":3760,"BSTAR":0.0018749,"MEAN_MOTION_DOT":0.00055552,"MEAN_MOTION_DDOT":0},{"OBJECT_NAME":"STARLINK-32841","OBJECT_ID":"2025-022M","EPOCH":"2025-10-01T22:24:03.808224","MEAN_MOTION":15.30189411,"ECCENTRICITY":0.0001264,"INCLINATION":53.1577,"RA_OF_ASC_NODE":147.0371,"ARG_OF_PERICENTER":90.8297,"MEAN_ANOMALY":269.2848,"EPHEMERIS_TYPE":0,"CLASSIFICATION_TYPE":"U","NORAD_CAT_ID":62865,"ELEMENT_SET_NO":999,"REV_AT_EPOCH":3758,"BSTAR":0.0016635,"MEAN_MOTION_DOT":0.00049219,"MEAN_MOTION_DDOT":0},{"OBJECT_NAME":"STARLINK-32695","OBJECT_ID":"2025-022N","EPOCH":"2025-10-02T00:51:08.235072","MEAN_MOTION":15.30204914,"ECCENTRICITY":0.0001243,"INCLINATION":53.158,"RA_OF_ASC_NODE":146.2474,"ARG_OF_PERICENTER":82.636,"MEAN_ANOMALY":277.4782,"EPHEMERIS_TYPE":0,"CLASSIFICATION_TYPE":"U","NORAD_CAT_ID":62866,"ELEMENT_SET_NO":999,"REV_AT_EPOCH":3761,"BSTAR":0.0013774,"MEAN_MOTION_DOT":0.00040665,"MEAN_MOTION_DDOT":0},{"OBJECT_NAME":"STARLINK-32846","OBJECT_ID":"2025-022P","EPOCH":"2025-10-01T22:10:22.957248","MEAN_MOTION":15.30185679,"ECCENTRICITY":0.00011,"INCLINATION":53.1583,"RA_OF_ASC_NODE":146.9605,"ARG_OF_PERICENTER":80.6869,"MEAN_ANOMALY":279.4256,"EPHEMERIS_TYPE":0,"CLASSIFICATION_TYPE":"U","NORAD_CAT_ID":62867,"ELEMENT_SET_NO":999,"REV_AT_EPOCH":3759,"BSTAR":0.0017118,"MEAN_MOTION_DOT":0.00050663,"MEAN_MOTION_DDOT":0},{"OBJECT_NAME":"STARLINK-32822","OBJECT_ID":"2025-022Q","EPOCH":"2025-10-02T01:36:43.609824","MEAN_MOTION":15.30205788,"ECCENTRICITY":0.0001333,"INCLINATION":53.1577,"RA_OF_ASC_NODE":146.4472,"ARG_OF_PERICENTER":91.9109,"MEAN_ANOMALY":268.2044,"EPHEMERIS_TYPE":0,"CLASSIFICATION_TYPE":"U","NORAD_CAT_ID":62868,"ELEMENT_SET_NO":999,"REV_AT_EPOCH":3761,"BSTAR":0.0020843,"MEAN_MOTION_DOT":0.00061899,"MEAN_MOTION_DDOT":0},{"OBJECT_NAME":"STARLINK-32813","OBJECT_ID":"2025-022R","EPOCH":"2025-10-02T01:58:00.372864","MEAN_MOTION":15.3025845,"ECCENTRICITY":0.0001189,"INCLINATION":53.1561,"RA_OF_ASC_NODE":146.541,"ARG_OF_PERICENTER":81.8083,"MEAN_ANOMALY":278.3053,"EPHEMERIS_TYPE":0,"CLASSIFICATION_TYPE":"U","NORAD_CAT_ID":62869,"ELEMENT_SET_NO":999,"REV_AT_EPOCH":3761,"BSTAR":0.0021312,"MEAN_MOTION_DOT":0.00063415,"MEAN_MOTION_DDOT":0},{"OBJECT_NAME":"STARLINK-32861","OBJECT_ID":"2025-022S","EPOCH":"2025-10-01T23:20:07.850112","MEAN_MOTION":15.30158544,"ECCENTRICITY":0.0001343,"INCLINATION":53.1583,"RA_OF_ASC_NODE":146.5652,"ARG_OF_PERICENTER":63.2632,"MEAN_ANOMALY":296.8506,"EPHEMERIS_TYPE":0,"CLASSIFICATION_TYPE":"U","NORAD_CAT_ID":62870,"ELEMENT_SET_NO":999,"REV_AT_EPOCH":3760,"BSTAR":0.00071395,"MEAN_MOTION_DOT":0.00020818,"MEAN_MOTION_DDOT":0},{"OBJECT_NAME":"STARLINK-32814","OBJECT_ID":"2025-022T","EPOCH":"2025-10-02T01:39:46.054656","MEAN_MOTION":15.30195944,"ECCENTRICITY":0.0001148,"INCLINATION":53.157,"RA_OF_ASC_NODE":146.464,"ARG_OF_PERICENTER":94.8955,"MEAN_ANOMALY":265.2177,"EPHEMERIS_TYPE":0,"CLASSIFICATION_TYPE":"U","NORAD_CAT_ID":62871,"ELEMENT_SET_NO":999,"REV_AT_EPOCH":3761,"BSTAR":0.001898,"MEAN_MOTION_DOT":0.00056273,"MEAN_MOTION_DDOT":0},{"OBJECT_NAME":"STARLINK-32849","OBJECT_ID":"2025-022U","EPOCH":"2025-10-02T00:37:37.631136","MEAN_MOTION":15.30188447,"ECCENTRICITY":0.0001628,"INCLINATION":53.1577,"RA_OF_ASC_NODE":146.9041,"ARG_OF_PERICENTER":55.6152,"MEAN_ANOMALY":304.5002,"EPHEMERIS_TYPE":0,"CLASSIFICATION_TYPE":"U","NORAD_CAT_ID":62872,"ELEMENT_SET_NO":999,"REV_AT_EPOCH":3760,"BSTAR":0.0024559,"MEAN_MOTION_DOT":0.0007307,"MEAN_MOTION_DDOT":0},{"OBJECT_NAME":"STARLINK-32833","OBJECT_ID":"2025-022V","EPOCH":"2025-10-01T22:11:54.180096","MEAN_MOTION":15.30188252,"ECCENTRICITY":6.54e-5,"INCLINATION":53.1584,"RA_OF_ASC_NODE":146.9846,"ARG_OF_PERICENTER":100.3826,"MEAN_ANOMALY":259.7249,"EPHEMERIS_TYPE":0,"CLASSIFICATION_TYPE":"U","NORAD_CAT_ID":62873,"ELEMENT_SET_NO":999,"REV_AT_EPOCH":3759,"BSTAR":0.0018853,"MEAN_MOTION_DOT":0.00055879,"MEAN_MOTION_DDOT":0}]
