STARLINK-32873          
1 62857U 25022D   25275.02190816  .00069272  00000+0  23300-2 0  9992
2 62857  53.1571 146.8788 0001214  75.7645 284.3490 15.30189746 37606
STARLINK-32866          
1 62858U 25022E   25274.90804244  .00050594  00000+0  17114-2 0  9999
2 62858  53.1588 146.8724 0001526  79.5025 280.6148 15.30149791 37598
STARLINK-32869          
1 62859U 25022F   25275.05028591  .00041959  00000+0  14212-2 0  9991
2 62859  53.1588 146.3269 0001206  86.7947 273.3192 15.30191590 37611
STARLINK-32831          
1 62860U 25022G   25275.05874097  .00040735  00000+0  13815-2 0  9992
2 62860  53.1578 146.3953 0001311  92.4752 267.6399 15.30162801 37604
STARLINK-32859          
1 62861U 25022H   25275.02718443  .00043818  00000+0  14835-2 0  9990
2 62861  53.1576 146.9071 0001392  77.5871 282.5286 15.30185140 37607
STARLINK-32864          
1 62862U 25022J   25274.92598501  .00074493  00000+0  25004-2 0  9993
2 62862  53.1578 146.9757 0001169  86.5359 273.5775 15.30223202 37597
STARLINK-32808          
1 62863U 25022K   25275.07877883  .00058715  00000+0  19785-2 0  9992
2 62863  53.1568 146.5180 0001361 103.4282 256.6870 15.30207721 37610
STARLINK-32862          
1 62864U 25022L   25275.01874274  .00055552  00000+0  18749-2 0  9993
2 62864  53.1567 146.8572 0001404  72.2734 287.8420 15.30180333 37606
STARLINK-32841          
1 62865U 25022M   25274.93337741  .00049219  00000+0  16635-2 0  9992
2 62865  53.1577 147.0371 0001264  90.8297 269.2848 15.30189411 37583
STARLINK-32695          
1 62866U 25022N   25275.03551198  .00040665  00000+0  13774-2 0  9996
2 62866  53.1580 146.2474 0001243  82.6360 277.4782 15.30204914 37618
STARLINK-32846          
1 62867U 25022P   25274.92387682  .00050663  00000+0  17118-2 0  9994
2 62867  53.1583 146.9605 0001100  80.6869 279.4256 15.30185679 37590
STARLINK-32822          
1 62868U 25022Q   25275.06717141  .00061899  00000+0  20843-2 0  9990
2 62868  53.1577 146.4472 0001333  91.9109 268.2044 15.30205788 37619
STARLINK-32813          
1 62869U 25022R   25275.08194876  .00063415  00000+0  21312-2 0  9995
2 62869  53.1561 146.5410 0001189  81.8083 278.3053 15.30258450 37610
STARLINK-32861          
1 62870U 25022S   25274.97231308  .00020818  00000+0  71395-3 0  9993
2 62870  53.1583 146.5652 0001343  63.2632 296.8506 15.30158544 37600
STARLINK-32814          
1 62871U 25022T   25275.06928304  .00056273  00000+0  18980-2 0  9998
2 62871  53.1570 146.4640 0001148  94.8955 265.2177 15.30195944 37614
STARLINK-32849          
1 62872U 25022U   25275.02612999  .00073070  00000+0  24559-2 0  9998
2 62872  53.1577 146.9041 0001628  55.6152 304.5002 15.30188447 37602
STARLINK-32833          
1 62873U 25022V   25274.92493264  .00055879  00000+0  18853-2 0  9996
2 62873  53.1584 146.9846 0000654 100.3826 259.7249 15.30188252 37594
